satname,norad_id,inclination_deg,eccentricity,mean_motion_rev_per_day,perigee_km,apogee_km,l1,l2
STARLINK-1497,45781,53.0309,0.0007632,15.84092536,313.76999006662663,323.99231857738414,1 45781U 20038BD  26014.66668981  .00298486  00000+0  12577-2 0  9991,2 45781  53.0309 351.8932 0007632  76.1202  92.5323 15.84092536  5994
STARLINK-1513,45786,53.0562,0.0001054,15.06413103,546.4414719162451,547.9013269268435,1 45786U 20038BJ  26014.44331388  .00001533  00000+0  12173-3 0  9998,2 45786  53.0562  80.1405 0001054  81.9541 278.1568 15.06413103308584
STARLINK-1522,46027,53.0569,0.0001422,15.06394729,546.2429259790551,548.2124997033861,1 46027U 20055A   26014.35762071  .00000032  00000+0  21058-4 0  9999,2 46027  53.0569  10.5230 0001422  87.3607 272.7545 15.06394729300696
STARLINK-1523,46028,53.0547,0.0001433,15.06391403,546.2455004062722,548.2303128545118,1 46028U 20055B   26014.23967120  .00000204  00000+0  32585-4 0  9997,2 46028  53.0547  11.0545 0001433  91.9753 268.1400 15.06391403300698
STARLINK-1526,46029,53.0559,0.000132,15.06392667,546.3198836419961,548.1481815946081,1 46029U 20055C   26014.36499424 -.00000190  00000+0  61072-5 0  9998,2 46029  53.0559  10.4902 0001320  89.2711 270.8429 15.06392667300707
STARLINK-1555,46032,53.0555,0.0001431,15.06398168,546.2261545779902,548.2081909422341,1 46032U 20055F   26014.15120237  .00000657  00000+0  63028-4 0  9991,2 46032  53.0555  11.4489 0001431  87.0379 273.0774 15.06398168300673
STARLINK-1556,46033,53.0562,0.0001425,15.06396066,546.2367512202645,548.2104789955702,1 46033U 20055G   26014.39816443  .00001040  00000+0  88690-4 0  9998,2 46033  53.0562  10.3415 0001425  89.7211 270.3941 15.06396066300688
STARLINK-1557,46034,53.0569,0.0001331,15.06401297,546.285819458958,548.1293461869054,1 46034U 20055H   26014.40185072 -.00001279  00000+0 -67004-4 0  9990,2 46034  53.0569  10.3251 0001331  81.3788 278.7351 15.06401297300687
STARLINK-1558,46035,53.0558,0.000146,15.0638708,546.2400494896756,548.2622628312747,1 46035U 20055J   26014.14384974  .00000787  00000+0  71753-4 0  9991,2 46035  53.0558  11.4858 0001460  90.4190 269.6966 15.06387080300675
STARLINK-1560,46036,53.0542,0.0001449,15.06395633,546.2214572512239,548.2284271420722,1 46036U 20055K   26014.46081940 -.00001259  00000+0 -65630-4 0  9998,2 46036  53.0542  10.0617 0001449  97.0953 263.0201 15.06395633300723
STARLINK-1567,46038,53.0557,0.0001628,15.06398414,546.0889712675353,548.3438663406987,1 46038U 20055M   26014.14014826 -.00001070  00000+0 -52941-4 0  9996,2 46038  53.0557  11.4997 0001628  87.1428 272.9747 15.06398414300660
STARLINK-1569,46039,53.0553,0.0001373,15.0639347,546.2807184152116,548.1824246249507,1 46039U 20055N   26014.14751990  .00000278  00000+0  37547-4 0  9999,2 46039  53.0553  11.4667 0001373  88.3124 271.8022 15.06393470300665
STARLINK-1582,46043,53.0561,0.0001364,15.06392072,546.2912353654128,548.1804770805902,1 46043U 20055S   26014.42028325  .00000254  00000+0  35934-4 0  9996,2 46043  53.0561  10.2414 0001364  86.1835 273.9310 15.06392072300706
STARLINK-1591,46045,53.0544,0.0001209,15.06402785,546.3657487188411,548.04029593624,1 46045U 20055U   26014.37974119  .00004600  00000+0  32750-3 0  9994,2 46045  53.0544  10.4243 0001209  85.4907 274.6220 15.06402785300689
STARLINK-1524,46047,53.055,0.0001387,15.06394756,546.2670820154344,548.1881781638212,1 46047U 20055W   26014.46543370 -.00000275  00000+0  44066-6 0  9998,2 46047  53.0550   0.0394 0001387  82.2795 277.8351 15.06394756300854
STARLINK-1527,46048,53.0557,0.0001485,15.06396211,546.1947547165528,548.2515866872518,1 46048U 20055X   26014.32904930  .00000576  00000+0  57539-4 0  9997,2 46048  53.0557   0.6527 0001485  88.5938 271.5222 15.06396211300815
STARLINK-1540,46051,53.0561,0.0001523,15.06403581,546.1458537969311,548.2553116246254,1 46051U 20055AA  26014.36222633 -.00000756  00000+0 -31861-4 0  9990,2 46051  53.0561   0.5024 0001523  96.3899 263.7263 15.06403581300852
STARLINK-1541,46052,53.0553,0.0001464,15.06397208,546.2062427477322,548.2339873110122,1 46052U 20055AB  26014.21480588  .00005819  00000+0  40928-3 0  9996,2 46052  53.0553   1.1648 0001464  96.5535 263.5621 15.06397208300793
STARLINK-1543,46053,53.0553,0.0001297,15.06401796,546.3078364683834,548.1042704564525,1 46053U 20055AC  26014.48385904  .00001605  00000+0  12661-3 0  9994,2 46053  53.0553 359.9564 0001297  91.6536 268.4601 15.06401796300864
STARLINK-1548,46054,53.0564,0.0001497,15.06400642,546.1728659168739,548.24631468601,1 46054U 20055AD  26014.22584390  .00002017  00000+0  15429-3 0  9990,2 46054  53.0564   1.1152 0001497  93.6937 266.4223 15.06400642300828
STARLINK-1554,46055,53.0557,0.0001174,15.06398006,546.4046326296584,548.0307059060024,1 46055U 20055AE  26014.34380594  .00003277  00000+0  23882-3 0  9995,2 46055  53.0557   0.5861 0001174  93.2101 266.9022 15.06398006300846
STARLINK-1564,46058,53.0552,0.0001589,15.06393979,546.1295706794326,548.3304523156867,1 46058U 20055AH  26014.35491613  .00001020  00000+0  87349-4 0  9997,2 46058  53.0552   0.9977 0001589  93.6377 266.4793 15.06393979300838
STARLINK-1570,46059,53.0553,0.0001689,15.06404787,546.0271976181521,548.3665754050162,1 46059U 20055AJ  26014.45068331 -.00002241  00000+0 -13157-3 0  9999,2 46059  53.0553   0.1076 0001689  98.5404 261.5776 15.06404787300813
STARLINK-1572,46060,53.0564,0.0001316,15.063966,546.3106012266207,548.1333557097541,1 46060U 20055AK  26014.44699940  .00001183  00000+0  98304-4 0  9996,2 46060  53.0564   0.1213 0001316  87.0162 273.0977 15.06396600300827
STARLINK-1573,46061,53.0555,0.0001481,15.06402332,546.178767640442,548.2300537662932,1 46061U 20055AL  26014.31063497  .00000476  00000+0  50836-4 0  9997,2 46061  53.0555   0.7717 0001481  91.5456 268.5703 15.06402332300839
STARLINK-1577,46063,53.0567,0.0001777,15.06385913,546.024090789897,548.48537501177,1 46063U 20055AN  26014.33643080 -.00000144  00000+0  92623-5 0  9997,2 46063  53.0567   0.6181 0001777  80.9543 279.1647 15.06385913300835
STARLINK-1583,46064,53.0546,0.0001414,15.0639111,546.2595565031033,548.218052780655,1 46064U 20055AP  26014.23690513  .00002990  00000+0  21958-3 0  9991,2 46064  53.0546   1.0658 0001414  85.8998 274.2153 15.06391110300826
STARLINK-1525,46066,53.055,0.0001485,15.06396312,546.1944452107882,548.2512770895501,1 46066U 20055AR  26014.30140995 -.00000432  00000+0 -10129-4 0  9995,2 46066  53.0550 340.7753 0001485  89.1278 270.9881 15.06396312301100
